M-CUBED & EXP-1 PRIME   
1 37855U 11061F   17346.35627336  .00001702  00000-0  95516-4 0  9993
2 37855 101.7177 308.3333 0178033 274.9643  83.1266 15.03890358333562
